[{"OBJECT_NAME":"EOSSAT-1","OBJECT_ID":"2023-001AW","EPOCH":"2026-03-09T17:40:07.010400","MEAN_MOTION":15.32339828,"ECCENTRICITY":0.00112629,"INCLINATION":97.3357,"RA_OF_ASC_NODE":130.2294,"ARG_OF_PERICENTER":110.3168,"MEAN_ANOMALY":249.9285,"EPHEMERIS_TYPE":0,"CLASSIFICATION_TYPE":"U","NORAD_CAT_ID":55053,"ELEMENT_SET_NO":999,"REV_AT_EPOCH":17668,"BSTAR":0.00024844399,"MEAN_MOTION_DOT":7.695e-5,"MEAN_MOTION_DDOT":0},{"OBJECT_NAME":"STARLINK-35669","OBJECT_ID":"2025-257S","EPOCH":"2026-03-09T16:10:08.929344","MEAN_MOTION":15.30201833,"ECCENTRICITY":9.924e-5,"INCLINATION":53.1608,"RA_OF_ASC_NODE":216.9084,"ARG_OF_PERICENTER":84.2037,"MEAN_ANOMALY":275.9077,"EPHEMERIS_TYPE":0,"CLASSIFICATION_TYPE":"U","NORAD_CAT_ID":66396,"ELEMENT_SET_NO":999,"REV_AT_EPOCH":1973,"BSTAR":0.00055291493,"MEAN_MOTION_DOT":0.00016053,"MEAN_MOTION_DDOT":0}]
